NORAD_CAT_ID,OBJECT_NAME,OBJECT_TYPE,EPOCH,MEAN_MOTION,ECCENTRICITY,INCLINATION,RA_OF_ASC_NODE,ARG_OF_PERICENTER,MEAN_ANOMALY,BSTAR,MEAN_MOTION_DOT,MEAN_MOTION_DDOT,TLE_LINE0,TLE_LINE1,TLE_LINE2,SEMIMAJOR_AXIS,PERIOD,APOGEE,PERIGEE,DECAYED
52858.0,STARLINK-4198,PAYLOAD,2023-06-14 18:56:21,15.0884147,0.0001021,53.215,188.3596,83.1823,276.9286,5.2976e-05,5.55e-06,0.0,0 STARLINK-4198,1 52858U 22062AE  23165.78914094  .00000555  00000-0  52976-4 0  9997,2 52858  53.2150 188.3596 0001021  83.1823 276.9286 15.08841470 55126,6917.876,95.437,540.447,539.035,0.0
52858.0,STARLINK-4198,PAYLOAD,2023-06-15 07:39:26,15.08840371,9.81e-05,53.2149,185.9803,86.7837,273.3267,6.3071e-05,7.16e-06,0.0,0 STARLINK-4198,1 52858U 22062AE  23166.31906126  .00000716  00000-0  63071-4 0  9991,2 52858  53.2149 185.9803 0000981  86.7837 273.3267 15.08840371 55697,6917.879,95.438,540.423,539.066,0.0
52858.0,STARLINK-4198,PAYLOAD,2023-06-16 10:40:59,15.08844632,0.0001025,53.2148,180.9251,82.6915,277.4193,3.9991e-05,3.49e-06,0.0,0 STARLINK-4198,1 52858U 22062AE  23167.44513781  .00000349  00000-0  39991-4 0  9993,2 52858  53.2148 180.9251 0001025  82.6915 277.4193 15.08844632 55866,6917.866,95.437,540.44,539.022,0.0
52858.0,STARLINK-4198,PAYLOAD,2023-06-17 00:59:28,15.08838573,0.0001036,53.2146,178.2485,82.5564,277.5545,1.5572e-06,-2.63e-06,0.0,0 STARLINK-4198,1 52858U 22062AE  23168.04130181 -.00000263  00000-0  15572-5 0  9995,2 52858  53.2146 178.2485 0001036  82.5564 277.5545 15.08838573 55953,6917.885,95.438,540.466,539.033,0.0
52858.0,STARLINK-4198,PAYLOAD,2023-06-17 07:21:00,15.0884009,0.0001037,53.2145,177.0585,85.2525,274.8585,1.1493e-05,-1.05e-06,0.0,0 STARLINK-4198,1 52858U 22062AE  23168.30626040 -.00000105  00000-0  11493-4 0  9990,2 52858  53.2145 177.0585 0001037  85.2525 274.8585 15.08840090 55500,6917.88,95.438,540.462,539.028,0.0
52858.0,STARLINK-4198,PAYLOAD,2023-06-18 07:11:48,15.08835486,0.0001036,53.2144,172.5979,83.4062,276.7048,-1.8909e-05,-5.89e-06,0.0,0 STARLINK-4198,1 52858U 22062AE  23169.29986620 -.00000589  00000-0 -18909-4 0  9998,2 52858  53.2144 172.5979 0001036  83.4062 276.7048 15.08835486 56140,6917.894,95.438,540.476,539.042,0.0
52858.0,STARLINK-4198,PAYLOAD,2023-06-18 16:44:07,15.08835995,0.0001042,53.2146,170.8138,82.2427,277.8684,-9.2997e-06,-4.36e-06,0.0,0 STARLINK-4198,1 52858U 22062AE  23169.69730655 -.00000436  00000-0 -92997-5 0  9998,2 52858  53.2146 170.8138 0001042  82.2427 277.8684 15.08835995 55714,6917.893,95.438,540.478,539.037,0.0
52858.0,STARLINK-4198,PAYLOAD,2023-06-19 10:13:21,15.08837787,0.0001035,53.2148,167.5437,82.9269,277.184,4.55e-05,4.36e-06,0.0,0 STARLINK-4198,1 52858U 22062AE  23170.42594550  .00000436  00000-0  45500-4 0  9998,2 52858  53.2148 167.5437 0001035  82.9269 277.1840 15.08837787 56319,6917.887,95.438,540.468,539.036,0.0
52858.0,STARLINK-4198,PAYLOAD,2023-06-19 16:34:54,15.08834547,0.0001013,53.2147,166.3543,81.5626,278.5481,4.4883e-05,4.27e-06,0.0,0 STARLINK-4198,1 52858U 22062AE  23170.69090819  .00000427  00000-0  44883-4 0  9999,2 52858  53.2147 166.3543 0001013  81.5626 278.5481 15.08834547 55867,6917.897,95.438,540.463,539.061,0.0
52858.0,STARLINK-4198,PAYLOAD,2023-06-20 10:04:08,15.08836648,0.0001025,53.2146,163.0832,82.7324,277.3784,6.62e-05,7.66e-06,0.0,0 STARLINK-4198,1 52858U 22062AE  23171.41954849  .00000766  00000-0  66200-4 0  9995,2 52858  53.2146 163.0832 0001025  82.7324 277.3784 15.08836648 55971,6917.891,95.438,540.465,539.047,0.0
52858.0,STARLINK-4198,PAYLOAD,2023-06-20 22:47:14,15.08837744,0.0001045,53.2152,160.7041,84.6108,275.5003,2.8491e-05,1.66e-06,0.0,0 STARLINK-4198,1 52858U 22062AE  23171.94946994  .00000166  00000-0  28491-4 0  9999,2 52858  53.2152 160.7041 0001045  84.6108 275.5003 15.08837744 56543,6917.887,95.438,540.475,539.029,0.0
52858.0,STARLINK-4198,PAYLOAD,2023-06-21 08:19:32,15.08842643,0.0001088,53.2148,158.92,84.3697,275.7419,5.3415e-05,5.62e-06,0.0,0 STARLINK-4198,1 52858U 22062AE  23172.34690619  .00000562  00000-0  53415-4 0  9998,2 52858  53.2148 158.9200 0001088  84.3697 275.7419 15.08842643 56111,6917.872,95.437,540.49,538.985,0.0
52858.0,STARLINK-4198,PAYLOAD,2023-06-21 16:16:28,15.08835912,0.0001142,53.2152,157.4331,81.3063,278.8059,7.718e-06,-1.65e-06,0.0,0 STARLINK-4198,1 52858U 22062AE  23172.67811211 -.00000165  00000-0  77180-5 0  9993,2 52858  53.2152 157.4331 0001142  81.3063 278.8059 15.08835912 56160,6917.893,95.438,540.548,538.968,0.0
52858.0,STARLINK-4198,PAYLOAD,2023-06-22 00:13:24,15.08833081,0.0001216,53.2151,155.9457,82.2217,277.8913,3.6572e-05,2.94e-06,0.0,0 STARLINK-4198,1 52858U 22062AE  23173.00931400  .00000294  00000-0  36572-4 0  9995,2 52858  53.2151 155.9457 0001216  82.2217 277.8913 15.08833081 56707,6917.902,95.438,540.608,538.925,0.0
52858.0,STARLINK-4198,PAYLOAD,2023-06-22 16:07:15,15.08840657,0.0001147,53.2148,152.9725,82.9422,277.1701,4.8663e-05,4.87e-06,0.0,0 STARLINK-4198,1 52858U 22062AE  23173.67170947  .00000487  00000-0  48663-4 0  9997,2 52858  53.2148 152.9725 0001147  82.9422 277.1701 15.08840657 56802,6917.878,95.438,540.537,538.95,0.0
52858.0,STARLINK-4198,PAYLOAD,2023-06-23 08:01:06,15.08849236,0.0001131,53.2149,149.9981,84.3134,275.7987,8.2087e-05,1.019e-05,0.0,0 STARLINK-4198,1 52858U 22062AE  23174.33410128  .00001019  00000-0  82087-4 0  9999,2 52858  53.2149 149.9981 0001131  84.3134 275.7987 15.08849236 56905,6917.852,95.437,540.5,538.935,0.0
52858.0,STARLINK-4198,PAYLOAD,2023-06-23 15:58:02,15.08841781,0.00012,53.2164,148.5098,85.8201,274.2928,4.9631e-05,5.02e-06,0.0,0 STARLINK-4198,1 52858U 22062AE  23174.66530638  .00000502  00000-0  49631-4 0  9998,2 52858  53.2164 148.5098 0001200  85.8201 274.2928 15.08841781 56955,6917.875,95.437,540.57,538.91,0.0
52858.0,STARLINK-4198,PAYLOAD,2023-06-24 01:30:21,15.08832801,0.0001205,53.2148,146.7272,94.9274,265.1856,2.0351e-05,3.6e-07,0.0,0 STARLINK-4198,1 52858U 22062AE  23175.06275445  .00000036  00000-0  20351-4 0  9995,2 52858  53.2148 146.7272 0001205  94.9274 265.1856 15.08832801 57017,6917.902,95.438,540.601,538.934,0.0
52858.0,STARLINK-4198,PAYLOAD,2023-06-25 02:56:31,15.08840691,0.0001172,53.2158,141.9696,93.1445,266.9682,2.1565e-06,-2.54e-06,0.0,0 STARLINK-4198,1 52858U 22062AE  23176.12259230 -.00000254  00000-0  21565-5 0  9999,2 52858  53.2158 141.9696 0001172  93.1445 266.9682 15.08840691 57178,6917.878,95.438,540.554,538.933,0.0
52858.0,STARLINK-4198,PAYLOAD,2023-06-25 07:42:41,15.08848319,0.0001099,53.2156,141.077,89.5605,270.5513,-2.1147e-05,-6.24e-06,0.0,0 STARLINK-4198,1 52858U 22062AE  23176.32130814 -.00000624  00000-0 -21147-4 0  9994,2 52858  53.2156 141.0770 0001099  89.5605 270.5513 15.08848319 57208,6917.855,95.437,540.48,538.96,0.0
52858.0,STARLINK-4198,PAYLOAD,2023-06-26 02:47:18,15.08837897,0.0001288,53.2157,137.5084,99.4326,260.6812,0.00010199,1.336e-05,0.0,0 STARLINK-4198,1 52858U 22062AE  23177.11619192  .00001336  00000-0  10199-3 0  9996,2 52858  53.2157 137.5084 0001288  99.4326 260.6812 15.08837897 57321,6917.887,95.438,540.643,538.861,0.0
52858.0,STARLINK-4198,PAYLOAD,2023-06-27 02:38:07,15.08831339,0.0001154,53.216,133.0482,95.0139,265.0984,-6.0919e-05,-1.257e-05,0.0,0 STARLINK-4198,1 52858U 22062AE  23178.10980332 -.00001257  00000-0 -60919-4 0  9993,2 52858  53.2160 133.0482 0001154  95.0139 265.0984 15.08831339 57474,6917.907,95.438,540.57,538.974,0.0
52858.0,STARLINK-4198,PAYLOAD,2023-06-27 13:45:48,15.08839203,9.75e-05,53.2158,130.9678,88.056,272.0544,-4.7492e-05,-1.043e-05,0.0,0 STARLINK-4198,1 52858U 22062AE  23178.57347865 -.00001043  00000-0 -47492-4 0  9996,2 52858  53.2158 130.9678 0000975  88.0560 272.0544 15.08839203 57540,6917.883,95.438,540.422,539.073,0.0
52858.0,STARLINK-4198,PAYLOAD,2023-06-28 07:15:02,15.08844332,0.0001082,53.216,127.6973,92.6878,267.4238,3.2595e-05,2.31e-06,0.0,0 STARLINK-4198,1 52858U 22062AE  23179.30211511  .00000231  00000-0  32595-4 0  9990,2 52858  53.2160 127.6973 0001082  92.6878 267.4238 15.08844332 57656,6917.867,95.437,540.481,538.984,0.0
52858.0,STARLINK-4198,PAYLOAD,2023-06-29 03:55:03,15.08839507,0.0001017,53.2159,123.8306,88.7293,271.3815,8.2484e-05,1.025e-05,0.0,0 STARLINK-4198,1 52858U 22062AE  23180.16323845  .00001025  00000-0  82484-4 0  9994,2 52858  53.2159 123.8306 0001017  88.7293 271.3815 15.08839507 57784,6917.882,95.438,540.45,539.043,0.0
52858.0,STARLINK-4198,PAYLOAD,2023-07-01 05:12:01,15.08836619,0.0001055,53.2159,114.6118,90.4044,269.7069,-6.2901e-06,-3.88e-06,0.0,0 STARLINK-4198,1 52858U 22062AE  23182.21668521 -.00000388  00000-0 -62901-5 0  9991,2 52858  53.2159 114.6118 0001055  90.4044 269.7069 15.08836619 58097,6917.891,95.438,540.486,539.026,0.0
52858.0,STARLINK-4198,PAYLOAD,2023-07-02 01:52:01,15.08845086,0.0001075,53.2158,110.7464,87.4868,272.6247,0.00011424,1.531e-05,0.0,0 STARLINK-4198,1 52858U 22062AE  23183.07779821  .00001531  00000-0  11424-3 0  9993,2 52858  53.2158 110.7464 0001075  87.4868 272.6247 15.08845086 58223,6917.865,95.437,540.474,538.986,0.0
52858.0,STARLINK-4198,PAYLOAD,2023-07-03 01:42:49,15.0883781,0.0001177,53.2157,106.2853,96.9866,263.126,0.00014688,2.05e-05,0.0,0 STARLINK-4198,1 52858U 22062AE  23184.07140350  .00002050  00000-0  14688-3 0  9995,2 52858  53.2157 106.2853 0001177  96.9866 263.1260 15.08837810 58372,6917.887,95.438,540.566,538.938,0.0
52858.0,STARLINK-4198,PAYLOAD,2023-07-04 01:33:36,15.08837266,0.0001108,53.2166,101.8276,84.2931,275.8187,-1.2812e-06,-3.08e-06,0.0,0 STARLINK-4198,1 52858U 22062AE  23185.06500832 -.00000308  00000-0 -12812-5 0  9995,2 52858  53.2166 101.8276 0001108  84.2931 275.8187 15.08837266 58529,6917.889,95.438,540.52,538.987,0.0
52858.0,STARLINK-4198,PAYLOAD,2023-07-05 01:24:23,15.08848184,0.0001028,53.2165,97.3658,94.015,266.096,8.0359e-05,9.92e-06,0.0,0 STARLINK-4198,1 52858U 22062AE  23186.05860030  .00000992  00000-0  80359-4 0  9991,2 52858  53.2165  97.3658 0001028  94.0150 266.0960 15.08848184 58672,6917.855,95.437,540.432,539.009,0.0
